{
  "type": "FeatureCollection",
  "features": [
    {
      "type": "Feature",
      "properties": {
        "norad_id": 35744,
        "name": "IRIDIUM 33 DEB",
        "group": "iridium-33-debris",
        "lat": -18.800997543525405,
        "lon": -40.638122673167814,
        "alt_km": 677.7347272833595,
        "timestamp": "2025-12-23T09:49:07.468442+00:00",
        "meta_object_name": "IRIDIUM 33 DEB",
        "meta_object_id": "1997-051RX",
        "meta_epoch": "2025-12-22T04:31:11.479584",
        "meta_mean_motion": 14.71109579,
        "meta_eccentricity": 0.00215595,
        "meta_inclination": 86.3295,
        "meta_ra_of_asc_node": 321.1656,
        "meta_arg_of_pericenter": 158.9993,
        "meta_mean_anomaly": 201.2114,
        "meta_ephemeris_type": 0,
        "meta_classification_type": "U",
        "meta_norad_cat_id": 35744,
        "meta_element_set_no": 999,
        "meta_rev_at_epoch": 87470,
        "meta_bstar": 0.0011466876,
        "meta_mean_motion_dot": 7.1e-05,
        "meta_mean_motion_ddot": 0,
        "tle_line1": "1 35744U 97051RX  25356.18832731  .00007100  00000+0  11467-2 0  9997",
        "tle_line2": "2 35744  86.3295 321.1656 0021559 158.9993 201.2114 14.71109579874709"
      },
      "geometry": {
        "type": "Point",
        "coordinates": [
          -40.638122673167814,
          -18.800997543525405
        ]
      }
    },
    {
      "type": "Feature",
      "properties": {
        "norad_id": 35797,
        "name": "IRIDIUM 33 DEB",
        "group": "iridium-33-debris",
        "lat": 16.746539363817497,
        "lon": 143.96485119097667,
        "alt_km": 614.0778422669209,
        "timestamp": "2025-12-23T09:49:07.468452+00:00",
        "meta_object_name": "IRIDIUM 33 DEB",
        "meta_object_id": "1997-051SF",
        "meta_epoch": "2025-12-20T04:58:23.124576",
        "meta_mean_motion": 14.82943756,
        "meta_eccentricity": 0.00144438,
        "meta_inclination": 86.3358,
        "meta_ra_of_asc_node": 326.5409,
        "meta_arg_of_pericenter": 124.2299,
        "meta_mean_anomaly": 236.0295,
        "meta_ephemeris_type": 0,
        "meta_classification_type": "U",
        "meta_norad_cat_id": 35797,
        "meta_element_set_no": 999,
        "meta_rev_at_epoch": 87451,
        "meta_bstar": 0.0011307637,
        "meta_mean_motion_dot": 9.219e-05,
        "meta_mean_motion_ddot": 0,
        "tle_line1": "1 35797U 97051SF  25354.20721209  .00009219  00000+0  11308-2 0  9990",
        "tle_line2": "2 35797  86.3358 326.5409 0014443 124.2299 236.0295 14.82943756874511"
      },
      "geometry": {
        "type": "Point",
        "coordinates": [
          143.96485119097667,
          16.746539363817497
        ]
      }
    },
    {
      "type": "Feature",
      "properties": {
        "norad_id": 35806,
        "name": "IRIDIUM 33 DEB",
        "group": "iridium-33-debris",
        "lat": -30.944025941927418,
        "lon": -161.87300330056976,
        "alt_km": 718.2370553975215,
        "timestamp": "2025-12-23T09:49:07.468462+00:00",
        "meta_object_name": "IRIDIUM 33 DEB",
        "meta_object_id": "1997-051SQ",
        "meta_epoch": "2025-12-22T08:08:16.057536",
        "meta_mean_motion": 14.57429355,
        "meta_eccentricity": 0.00153731,
        "meta_inclination": 86.3431,
        "meta_ra_of_asc_node": 16.4008,
        "meta_arg_of_pericenter": 45.7308,
        "meta_mean_anomaly": 314.5159,
        "meta_ephemeris_type": 0,
        "meta_classification_type": "U",
        "meta_norad_cat_id": 35806,
        "meta_element_set_no": 999,
        "meta_rev_at_epoch": 86464,
        "meta_bstar": 0.0011754226,
        "meta_mean_motion_dot": 5.361e-05,
        "meta_mean_motion_ddot": 0,
        "tle_line1": "1 35806U 97051SQ  25356.33907474  .00005361  00000+0  11754-2 0  9996",
        "tle_line2": "2 35806  86.3431  16.4008 0015373  45.7308 314.5159 14.57429355864645"
      },
      "geometry": {
        "type": "Point",
        "coordinates": [
          -161.87300330056976,
          -30.944025941927418
        ]
      }
    },
    {
      "type": "Feature",
      "properties": {
        "norad_id": 35809,
        "name": "IRIDIUM 33 DEB",
        "group": "iridium-33-debris",
        "lat": -21.676060422227646,
        "lon": 151.95107516004293,
        "alt_km": 640.5249015017271,
        "timestamp": "2025-12-23T09:49:07.468473+00:00",
        "meta_object_name": "IRIDIUM 33 DEB",
        "meta_object_id": "1997-051ST",
        "meta_epoch": "2025-12-21T16:13:39.380736",
        "meta_mean_motion": 14.75870585,
        "meta_eccentricity": 0.00102664,
        "meta_inclination": 86.3279,
        "meta_ra_of_asc_node": 331.2775,
        "meta_arg_of_pericenter": 205.8578,
        "meta_mean_anomaly": 154.2129,
        "meta_ephemeris_type": 0,
        "meta_classification_type": "U",
        "meta_norad_cat_id": 35809,
        "meta_element_set_no": 999,
        "meta_rev_at_epoch": 86939,
        "meta_bstar": 0.0013721853,
        "meta_mean_motion_dot": 9.452e-05,
        "meta_mean_motion_ddot": 0,
        "tle_line1": "1 35809U 97051ST  25355.67615024  .00009452  00000+0  13722-2 0  9994",
        "tle_line2": "2 35809  86.3279 331.2775 0010266 205.8578 154.2129 14.75870585869399"
      },
      "geometry": {
        "type": "Point",
        "coordinates": [
          151.95107516004293,
          -21.676060422227646
        ]
      }
    },
    {
      "type": "Feature",
      "properties": {
        "norad_id": 35846,
        "name": "IRIDIUM 33 DEB",
        "group": "iridium-33-debris",
        "lat": 8.413874804631213,
        "lon": -126.24979627348536,
        "alt_km": 738.4629438016746,
        "timestamp": "2025-12-23T09:49:07.468482+00:00",
        "meta_object_name": "IRIDIUM 33 DEB",
        "meta_object_id": "1997-051SW",
        "meta_epoch": "2025-12-20T14:27:58.085568",
        "meta_mean_motion": 14.43184351,
        "meta_eccentricity": 0.00195294,
        "meta_inclination": 86.3741,
        "meta_ra_of_asc_node": 55.4852,
        "meta_arg_of_pericenter": 145.7638,
        "meta_mean_anomaly": 214.4826,
        "meta_ephemeris_type": 0,
        "meta_classification_type": "U",
        "meta_norad_cat_id": 35846,
        "meta_element_set_no": 999,
        "meta_rev_at_epoch": 71442,
        "meta_bstar": 0.00034498842,
        "meta_mean_motion_dot": 1.181e-05,
        "meta_mean_motion_ddot": 0,
        "tle_line1": "1 35846U 97051SW  25354.60275562  .00001181  00000+0  34499-3 0  9992",
        "tle_line2": "2 35846  86.3741  55.4852 0019529 145.7638 214.4826 14.43184351714425"
      },
      "geometry": {
        "type": "Point",
        "coordinates": [
          -126.24979627348536,
          8.413874804631213
        ]
      }
    },
    {
      "type": "Feature",
      "properties": {
        "norad_id": 35848,
        "name": "IRIDIUM 33 DEB",
        "group": "iridium-33-debris",
        "lat": -85.1036101166266,
        "lon": -121.18382785663863,
        "alt_km": 643.1312755081772,
        "timestamp": "2025-12-23T09:49:07.468492+00:00",
        "meta_object_name": "IRIDIUM 33 DEB",
        "meta_object_id": "1997-051SY",
        "meta_epoch": "2025-12-20T18:54:17.008704",
        "meta_mean_motion": 14.78786946,
        "meta_eccentricity": 0.00088391,
        "meta_inclination": 86.3889,
        "meta_ra_of_asc_node": 12.5039,
        "meta_arg_of_pericenter": 160.7491,
        "meta_mean_anomaly": 199.4066,
        "meta_ephemeris_type": 0,
        "meta_classification_type": "U",
        "meta_norad_cat_id": 35848,
        "meta_element_set_no": 999,
        "meta_rev_at_epoch": 66809,
        "meta_bstar": 0.00088484231,
        "meta_mean_motion_dot": 6.531e-05,
        "meta_mean_motion_ddot": 0,
        "tle_line1": "1 35848U 97051SY  25354.78769686  .00006531  00000+0  88484-3 0  9995",
        "tle_line2": "2 35848  86.3889  12.5039 0008839 160.7491 199.4066 14.78786946668092"
      },
      "geometry": {
        "type": "Point",
        "coordinates": [
          -121.18382785663863,
          -85.1036101166266
        ]
      }
    },
    {
      "type": "Feature",
      "properties": {
        "norad_id": 35850,
        "name": "IRIDIUM 33 DEB",
        "group": "iridium-33-debris",
        "lat": -59.212681975206586,
        "lon": 165.54227652342095,
        "alt_km": 639.7836963750879,
        "timestamp": "2025-12-23T09:49:07.468516+00:00",
        "meta_object_name": "IRIDIUM 33 DEB",
        "meta_object_id": "1997-051TA",
        "meta_epoch": "2025-12-22T16:30:11.093760",
        "meta_mean_motion": 14.79024497,
        "meta_eccentricity": 0.00105589,
        "meta_inclination": 86.349,
        "meta_ra_of_asc_node": 339.7186,
        "meta_arg_of_pericenter": 150.1943,
        "meta_mean_anomaly": 209.9881,
        "meta_ephemeris_type": 0,
        "meta_classification_type": "U",
        "meta_norad_cat_id": 35850,
        "meta_element_set_no": 999,
        "meta_rev_at_epoch": 71504,
        "meta_bstar": 0.001690767,
        "meta_mean_motion_dot": 0.0001254,
        "meta_mean_motion_ddot": 0,
        "tle_line1": "1 35850U 97051TA  25356.68762840  .00012540  00000+0  16908-2 0  9992",
        "tle_line2": "2 35850  86.3490 339.7186 0010558 150.1943 209.9881 14.79024497715043"
      },
      "geometry": {
        "type": "Point",
        "coordinates": [
          165.54227652342095,
          -59.212681975206586
        ]
      }
    }
  ]
}